#dP2024  8 28  0  0  0.00000000      96 __u+U IGS20 EXT  IAC
## 2329 259200.00000000   900.00000000 60550 0.0000000000000
+   53   G01G02G03G04G05G06G07G08G09G10G11G12G13G14G15G16G17
+        G18G19G20G21G22G23G24G25G26G27G28G29G30G31G32R02R03
+        R04R05R07R08R09R11R12R14R15R16R17R18R19R20R21R22R24
+        R25R26  0  0  0  0  0  0  0  0  0  0  0  0  0  0  0
+          0  0  0  0  0  0  0  0  0  0  0  0  0  0  0  0  0
++        10  9  7  8  8  8  9  9  9  8  8  8 10 10  9  7  8
++         8  8  9  8  9  8 10  8  8 10 10  7 12  7  8  9  8
++         8  7  7  9  7  8  9  7  9  7  7  8  9 10  9  8  9
++         9  8  0  0  0  0  0  0  0  0  0  0  0  0  0  0  0
++         0  0  0  0  0  0  0  0  0  0  0  0  0  0  0  0  0
%c M  cc GPS ccc cccc cccc cccc cccc ccccc ccccc ccccc ccccc
%c cc cc ccc ccc cccc cccc cccc cccc ccccc ccccc ccccc ccccc
%f  0.0000000  0.000000000  0.00000000000  0.000000000000000
%f  0.0000000  0.000000000  0.00000000000  0.000000000000000
%i    0    0    0    0      0      0      0      0         0
%i    0    0    0    0      0      0      0      0         0
/* IAC                                ULTRA-RAPID PREDICTION
/* S/V CLOCKS ARE ALIGNED TO GNSS TIME                      
/* G:C1WC2W R:C1PC2P E:C1XC5X C:C2IC6I J:C1CC2S             
/* PCV:IGS20_2317 OL/AL:FES2004  NONE     YN ORB:CoN CLK:CoN
*  2024 08 28  0 30  0.00000000
PG01  10438.731424 -13722.559864  19736.777727    211.375734
PG02 -16085.566651 -13259.790881 -16172.714496   -370.156396
PG03 -12732.410730 -21789.509439   8294.991396    516.523364
PG04  -9225.840260 -12112.956836  21768.260024    432.568406
PG05   4381.308623  25140.565351   7042.048691   -184.654543
PG06 -20008.168525   6435.948925  16368.160951     70.134257
PG07 -25931.834044  -6717.010401   1631.866986    -45.434933
PG08    339.316664 -19852.825332 -17541.001813    331.772557
PG09 -17405.669054  -1182.310932  19951.764406    332.063494
PG10  12732.982319  -7611.489001 -21792.113288   -106.932005
PG11  -5878.523454  14024.760975  21802.343480   -727.440389
PG12   9806.640719  24077.451986   5269.233510   -533.674828
PG13 -10152.780764  20483.470356 -13537.339207    673.283063
PG14 -15169.958813   3483.600904 -21482.743925    482.341457
PG15   2589.868798  19954.769938 -17768.597700    197.556774
PG16   1586.009671 -24178.800178  10001.599851   -196.794356
PG17 -21572.552598  12370.885551  -9144.990612    643.370593
PG18  25963.792313   6140.288350    155.789307   -649.483817
PG19 -20270.514303  16740.240085  -1608.380398    530.389180
PG20  -2089.838372  20823.769870  16506.636614    371.233436
PG21 -10996.036471 -14730.699398 -19118.469186    102.817028
PG22 -11486.925565  12628.877458 -20011.311598    -55.882895
PG23  16433.359120   6435.281446 -19890.581364    307.116705
PG24  13769.899058  14815.387061 -17853.842852   -486.710427
PG25  16094.130266  15554.123728  14158.221981    499.479488
PG26   8666.451745 -16035.303307  19037.565321     91.572243
PG27  10416.209364 -22207.500367  -9920.064741    -33.486836
PG28  21527.379170  -6227.330659  14247.965414   -389.290433
PG29  15120.883287   5556.508721  21097.249208   -581.491943
PG30 -25048.495258   1430.878958  -8957.429328   -332.134638
PG31  11508.876353 -12177.990145  20467.242284   -225.392597
PG32  20504.124375 -14271.102467  -8504.419184   -602.371911
PR02 -10551.393369  23099.299571   2804.648851    -24.356776
PR03  -1136.519101  21279.231422 -14028.170881    106.453270
PR04   8224.462844   7841.953085 -22815.538784    251.949142
PR05  13480.177492  -9650.526042 -19370.889666    136.768478
PR07    702.769153 -20873.537421  14640.981854     89.695230
PR08  -8570.826357  -7512.664856  22870.564480     -6.397508
PR09   2138.922523 -13747.791500  21421.658776    205.840911
PR11 -17891.581535 -17239.348481  -5807.589983     13.482999
PR12 -14612.007727  -2095.857870 -20770.221126     44.148063
PR14  11043.360764  20738.190477  -9886.931721     26.865579
PR15  18073.646097  16360.621180   7514.954305     76.423692
PR16  14602.369440   2257.703193  20796.646964     28.632246
PR17   4768.101725   9938.006747  23015.590184    116.989079
PR18  19912.077091   4237.549881  15360.053297    159.169897
PR19  25385.899446  -2023.766091   1597.437591   -289.202625
PR20  15425.541714  -9651.552686 -17853.628134   -118.282998
PR21  -3885.418496 -10041.133094 -23121.205772   -129.587248
PR22 -20682.170099  -4404.952701 -14241.950860     60.290428
PR24 -14415.415548  10825.890395  18049.895240    -69.619645
PR25  -4722.537382 -10355.538605 -22819.809029   -101.022452
PR26  -7858.723403  -9015.561758  22548.053747     13.004131
*  2024 08 28  0 45  0.00000000
PG01  11321.704384 -11490.403621  20666.681435    211.367734
PG02 -14059.547242 -13213.823275 -17922.539493   -370.149400
PG03 -12843.235298 -22607.172931   5543.462500    516.536239
PG04  -7541.161906 -13909.809678  21325.986285    432.574953
PG05   3806.271423  24316.420223   9704.760027   -184.655626
PG06 -21687.031514   5989.602931  14264.455559     70.111682
PG07 -25608.736626  -6906.394645   4413.506871    -45.430164
PG08   1670.249187 -21225.620324 -15714.437611    331.785082
PG09 -15999.090397  -3072.914446  20895.805775    332.077726
PG10  13616.908180  -5223.593983 -21987.519052   -106.942442
PG11  -8272.403417  13441.929939  21382.288415   -727.444884
PG12   9696.651625  24600.461772   2460.213249   -533.677427
PG13 -11317.315351  21260.951397 -11145.534092    673.285038
PG14 -15930.003597   1148.588915 -21203.017701    482.349264
PG15   1455.790692  21440.460749 -16014.647666    197.560756
PG16   2179.263007 -22943.722002  12460.648931   -196.785107
PG17 -20865.903494  11331.056568 -11655.250747    643.361377
PG18  25750.447369   6300.477517   3018.550738   -649.486288
PG19 -20214.260069  16315.717857  -4472.889451    530.393745
PG20  -3210.937464  19195.393088  18205.844506    371.233120
PG21  -8691.074702 -14600.047262 -20250.191996    102.816392
PG22 -12170.945092  10307.968417 -20873.726246    -55.886486
PG23  17150.979532   8505.300552 -18477.382635    307.124400
PG24  11725.915453  14793.413343 -19272.607682   -486.710720
PG25  16436.307948  17067.064718  11920.624807    499.479621
PG26   9755.239976 -14015.082179  20101.626382     91.565049
PG27  11228.140995 -22780.024224  -7274.427088    -33.487131
PG28  22983.851127  -5810.406133  11968.848036   -389.303473
PG29  13432.495295   7335.149245  21675.969263   -581.489824
PG30 -25875.298237    990.997713  -6353.269273   -332.128398
PG31  13764.383430 -11631.305898  19410.632701   -225.392205
PG32  19955.560344 -13228.269086 -11066.080217   -602.369092
PR02 -10206.846201  22654.052365   5965.162143    -24.356948
PR03  -1520.030334  22808.691939 -11344.262698    106.453986
PR04   7327.655103  10469.386726 -22056.454224    251.950757
PR05  12550.289861  -7337.456290 -20947.537385    136.769042
PR07   1118.174428 -22466.724279  12010.768083     89.695998
PR08  -7694.202355 -10136.702937  22153.900839     -6.397527
PR09   3946.908438 -11755.985973  22325.132422    205.842819
PR11 -18346.611642 -17535.738454  -2652.752221     13.482006
PR12 -16289.599612  -3913.594297 -19201.563210     44.148506
PR14  10189.295265  19631.137085 -12669.560338     26.865688
PR15  18649.525992  16831.081791   4421.877752     76.423266
PR16  16290.977007   4057.023498  19204.229564     28.632547
PR17   1962.334170  10446.998881  23195.465687    116.991877
PR18  17880.439056   4444.211976  17637.588717    159.171616
PR19  24963.201274  -2185.419776   4811.065329   -289.203826
PR20  17455.254812 -10087.563896 -15600.403651   -118.283861
PR21  -1066.306562 -10535.413996 -23206.076585   -129.590040
PR22 -18777.408050  -4577.056084 -16622.520526     60.282958
PR24 -16452.394597  11310.825256  15875.744005    -69.621047
PR25  -1919.644280 -10757.235241 -23043.095431   -101.022625
PR26  -7025.107611 -11607.410589  21619.847649     13.008897
EOF
